{"type": "FeatureCollection", "features": [ {"type": "Feature", "properties": {"norad_id": 67131, "name": "ZIYUAN 3-04 (ZY 3-04)", "group": "last-30-days", "lat": 40.69401633327627, "lon": -100.04800396171713, "alt_km": 497.2764185955248, "timestamp": "2025-12-25T09:48:51.009109+00:00", "meta": {"OBJECT_NAME": "ZIYUAN 3-04 (ZY 3-04)", "OBJECT_ID": "2025-300A", "EPOCH": "2025-12-21T18:22:34.187808", "MEAN_MOTION": 15.21179479, "ECCENTRICITY": 0.00027623, "INCLINATION": 97.4922, "RA_OF_ASC_NODE": 69.8294, "ARG_OF_PERICENTER": 167.6924, "MEAN_ANOMALY": 192.438, "EPHEMERIS_TYPE": 0, "CLASSIFICATION_TYPE": "U", "NORAD_CAT_ID": 67131, "ELEMENT_SET_NO": 999, "REV_AT_EPOCH": 86, "BSTAR": 6.5769783e-05, "MEAN_MOTION_DOT": 1.396e-05, "MEAN_MOTION_DDOT": 0}, "tle": {"line1": "1 67131U 25300A   25355.76567347  .00001396  00000+0  65770-4 0  9990", "line2": "2 67131  97.4922  69.8294 0002762 167.6924 192.4380 15.21179479   860"}}, "geometry": {"type": "Point", "coordinates": [-100.04800396171713, 40.69401633327627]}}, {"type": "Feature", "properties": {"norad_id": 67132, "name": "CZ-4B R/B", "group": "last-30-days", "lat": 82.42500201278237, "lon": -19.23497790201571, "alt_km": 398.12854577192775, "timestamp": "2025-12-25T09:48:51.009120+00:00", "meta": {"OBJECT_NAME": "CZ-4B R/B", "OBJECT_ID": "2025-300B", "EPOCH": "2025-12-18T16:13:04.609056", "MEAN_MOTION": 15.63831828, "ECCENTRICITY": 0.01741973, "INCLINATION": 97.5563, "RA_OF_ASC_NODE": 66.966, "ARG_OF_PERICENTER": 9.3582, "MEAN_ANOMALY": 351.0851, "EPHEMERIS_TYPE": 0, "CLASSIFICATION_TYPE": "U", "NORAD_CAT_ID": 67132, "ELEMENT_SET_NO": 999, "REV_AT_EPOCH": 40, "BSTAR": 0.00019566238, "MEAN_MOTION_DOT": 0.00040543, "MEAN_MOTION_DDOT": 2.652968e-06}, "tle": {"line1": "1 67132U 25300B   25352.67574779  .00040543  26530-5  19566-3 0  9995", "line2": "2 67132  97.5563  66.9660 0174197   9.3582 351.0851 15.63831828   407"}}, "geometry": {"type": "Point", "coordinates": [-19.23497790201571, 82.42500201278237]}}, {"type": "Feature", "properties": {"norad_id": 67133, "name": "KUIPER-00144", "group": "last-30-days", "lat": 43.836895831355335, "lon": 112.99771768767522, "alt_km": 451.62794103228134, "timestamp": "2025-12-25T09:48:51.009132+00:00", "meta": {"OBJECT_NAME": "KUIPER-00144", "OBJECT_ID": "2025-301A", "EPOCH": "2025-12-25T04:00:01.998720", "MEAN_MOTION": 15.35378411, "ECCENTRICITY": 0.0006265, "INCLINATION": 51.87, "RA_OF_ASC_NODE": 65.2071, "ARG_OF_PERICENTER": 121.1116, "MEAN_ANOMALY": 40.9435, "EPHEMERIS_TYPE": 0, "CLASSIFICATION_TYPE": "U", "NORAD_CAT_ID": 67133, "ELEMENT_SET_NO": 999, "REV_AT_EPOCH": 168, "BSTAR": 0.0015147, "MEAN_MOTION_DOT": 0.00052865, "MEAN_MOTION_DDOT": 0}, "tle": {"line1": "1 67133U 25301A   25359.16668980  .00052865  00000+0  15147-2 0  9994", "line2": "2 67133  51.8700  65.2071 0006265 121.1116  40.9435 15.35378411  1684"}}, "geometry": {"type": "Point", "coordinates": [112.99771768767522, 43.836895831355335]}}, {"type": "Feature", "properties": {"norad_id": 67134, "name": "KUIPER-00164", "group": "last-30-days", "lat": 51.66269852176734, "lon": 147.30427364343498, "alt_km": 448.5308391083672, "timestamp": "2025-12-25T09:48:51.009142+00:00", "meta": {"OBJECT_NAME": "KUIPER-00164", "OBJECT_ID": "2025-301B", "EPOCH": "2025-12-25T04:00:01.998720", "MEAN_MOTION": 15.36077492, "ECCENTRICITY": 0.0003122, "INCLINATION": 51.8723, "RA_OF_ASC_NODE": 65.1572, "ARG_OF_PERICENTER": 103.2478, "MEAN_ANOMALY": 82.238, "EPHEMERIS_TYPE": 0, "CLASSIFICATION_TYPE": "U", "NORAD_CAT_ID": 67134, "ELEMENT_SET_NO": 999, "REV_AT_EPOCH": 245, "BSTAR": 0.0015535, "MEAN_MOTION_DOT": 0.0005546, "MEAN_MOTION_DDOT": 0}, "tle": {"line1": "1 67134U 25301B   25359.16668980  .00055460  00000+0  15535-2 0  9990", "line2": "2 67134  51.8723  65.1572 0003122 103.2478  82.2380 15.36077492  2456"}}, "geometry": {"type": "Point", "coordinates": [147.30427364343498, 51.66269852176734]}}, {"type": "Feature", "properties": {"norad_id": 67135, "name": "KUIPER-00175", "group": "last-30-days", "lat": 50.2544940214612, "lon": 173.13016540863205, "alt_km": 448.3365156709324, "timestamp": "2025-12-25T09:48:51.009155+00:00", "meta": {"OBJECT_NAME": "KUIPER-00175", "OBJECT_ID": "2025-301C", "EPOCH": "2025-12-25T04:00:01.998720", "MEAN_MOTION": 15.36543446, "ECCENTRICITY": 0.0002143, "INCLINATION": 51.874, "RA_OF_ASC_NODE": 65.1181, "ARG_OF_PERICENTER": 56.008, "MEAN_ANOMALY": 145.2838, "EPHEMERIS_TYPE": 0, "CLASSIFICATION_TYPE": "U", "NORAD_CAT_ID": 67135, "ELEMENT_SET_NO": 999, "REV_AT_EPOCH": 234, "BSTAR": 0.0015587, "MEAN_MOTION_DOT": 0.00056494, "MEAN_MOTION_DDOT": 0}, "tle": {"line1": "1 67135U 25301C   25359.16668980  .00056494  00000+0  15587-2 0  9996", "line2": "2 67135  51.8740  65.1181 0002143  56.0080 145.2838 15.36543446  2341"}}, "geometry": {"type": "Point", "coordinates": [173.13016540863205, 50.2544940214612]}}, {"type": "Feature", "properties": {"norad_id": 67136, "name": "KUIPER-00179", "group": "last-30-days", "lat": 51.79404016129845, "lon": 157.72746108733682, "alt_km": 448.0500984937962, "timestamp": "2025-12-25T09:48:51.009166+00:00", "meta": {"OBJECT_NAME": "KUIPER-00179", "OBJECT_ID": "2025-301D", "EPOCH": "2025-12-25T04:00:01.998720", "MEAN_MOTION": 15.36259823, "ECCENTRICITY": 0.0002879, "INCLINATION": 51.8736, "RA_OF_ASC_NODE": 65.1404, "ARG_OF_PERICENTER": 83.7277, "MEAN_ANOMALY": 108.0357, "EPHEMERIS_TYPE": 0, "CLASSIFICATION_TYPE": "U", "NORAD_CAT_ID": 67136, "ELEMENT_SET_NO": 999, "REV_AT_EPOCH": 245, "BSTAR": 0.0015274, "MEAN_MOTION_DOT": 0.00054838, "MEAN_MOTION_DDOT": 0}, "tle": {"line1": "1 67136U 25301D   25359.16668980  .00054838  00000+0  15274-2 0  9990", "line2": "2 67136  51.8736  65.1404 0002879  83.7277 108.0357 15.36259823  2454"}}, "geometry": {"type": "Point", "coordinates": [157.72746108733682, 51.79404016129845]}}, {"type": "Feature", "properties": {"norad_id": 67137, "name": "KUIPER-00181", "group": "last-30-days", "lat": 21.536956559064677, "lon": 82.17273080325303, "alt_km": 463.1557725134462, "timestamp": "2025-12-25T09:48:51.009178+00:00", "meta": {"OBJECT_NAME": "KUIPER-00181", "OBJECT_ID": "2025-301E", "EPOCH": "2025-12-25T04:00:01.998720", "MEAN_MOTION": 15.34367781, "ECCENTRICITY": 0.001009, "INCLINATION": 51.8636, "RA_OF_ASC_NODE": 65.2758, "ARG_OF_PERICENTER": 141.551, "MEAN_ANOMALY": 347.5687, "EPHEMERIS_TYPE": 0, "CLASSIFICATION_TYPE": "U", "NORAD_CAT_ID": 67137, "ELEMENT_SET_NO": 999, "REV_AT_EPOCH": 243, "BSTAR": 0.001607, "MEAN_MOTION_DOT": 0.00054386, "MEAN_MOTION_DDOT": 0}, "tle": {"line1": "1 67137U 25301E   25359.16668980  .00054386  00000+0  16070-2 0  9994", "line2": "2 67137  51.8636  65.2758 0010090 141.5510 347.5687 15.34367781  2439"}}, "geometry": {"type": "Point", "coordinates": [82.17273080325303, 21.536956559064677]}}, {"type": "Feature", "properties": {"norad_id": 67138, "name": "KUIPER-00183", "group": "last-30-days", "lat": 13.149661841479189, "lon": 74.70860865018182, "alt_km": 467.6223990866847, "timestamp": "2025-12-25T09:48:51.009188+00:00", "meta": {"OBJECT_NAME": "KUIPER-00183", "OBJECT_ID": "2025-301F", "EPOCH": "2025-12-25T04:00:01.998720", "MEAN_MOTION": 15.34028663, "ECCENTRICITY": 0.0011476, "INCLINATION": 51.861, "RA_OF_ASC_NODE": 65.2971, "ARG_OF_PERICENTER": 145.6695, "MEAN_ANOMALY": 332.7383, "EPHEMERIS_TYPE": 0, "CLASSIFICATION_TYPE": "U", "NORAD_CAT_ID": 67138, "ELEMENT_SET_NO": 999, "REV_AT_EPOCH": 244, "BSTAR": 0.0015446, "MEAN_MOTION_DOT": 0.00051701, "MEAN_MOTION_DDOT": 0}, "tle": {"line1": "1 67138U 25301F   25359.16668980  .00051701  00000+0  15446-2 0  9999", "line2": "2 67138  51.8610  65.2971 0011476 145.6695 332.7383 15.34028663  2440"}}, "geometry": {"type": "Point", "coordinates": [74.70860865018182, 13.149661841479189]}}, {"type": "Feature", "properties": {"norad_id": 67139, "name": "KUIPER-00184", "group": "last-30-days", "lat": 24.72460600639822, "lon": 85.31088726439299, "alt_km": 461.6652991897181, "timestamp": "2025-12-25T09:48:51.009198+00:00", "meta": {"OBJECT_NAME": "KUIPER-00184", "OBJECT_ID": "2025-301G", "EPOCH": "2025-12-25T04:00:01.998720", "MEAN_MOTION": 15.3446381, "ECCENTRICITY": 0.0009037, "INCLINATION": 51.8624, "RA_OF_ASC_NODE": 65.2672, "ARG_OF_PERICENTER": 141.8688, "MEAN_ANOMALY": 351.4598, "EPHEMERIS_TYPE": 0, "CLASSIFICATION_TYPE": "U", "NORAD_CAT_ID": 67139, "ELEMENT_SET_NO": 999, "REV_AT_EPOCH": 255, "BSTAR": 0.0015803, "MEAN_MOTION_DOT": 0.00053618, "MEAN_MOTION_DDOT": 0}, "tle": {"line1": "1 67139U 25301G   25359.16668980  .00053618  00000+0  15803-2 0  9996", "line2": "2 67139  51.8624  65.2672 0009037 141.8688 351.4598 15.34463810  2559"}}, "geometry": {"type": "Point", "coordinates": [85.31088726439299, 24.72460600639822]}}, {"type": "Feature", "properties": {"norad_id": 67140, "name": "KUIPER-00186", "group": "last-30-days", "lat": 36.11156337482849, "lon": 99.03178437455672, "alt_km": 455.40040211907035, "timestamp": "2025-12-25T09:48:51.009210+00:00", "meta": {"OBJECT_NAME": "KUIPER-00186", "OBJECT_ID": "2025-301H", "EPOCH": "2025-12-25T04:00:01.998720", "MEAN_MOTION": 15.34956009, "ECCENTRICITY": 0.0007636, "INCLINATION": 51.868, "RA_OF_ASC_NODE": 65.2341, "ARG_OF_PERICENTER": 128.8466, "MEAN_ANOMALY": 20.4323, "EPHEMERIS_TYPE": 0, "CLASSIFICATION_TYPE": "U", "NORAD_CAT_ID": 67140, "ELEMENT_SET_NO": 999, "REV_AT_EPOCH": 130, "BSTAR": 0.0015078, "MEAN_MOTION_DOT": 0.00051923, "MEAN_MOTION_DDOT": 0}, "tle": {"line1": "1 67140U 25301H   25359.16668980  .00051923  00000+0  15078-2 0  9999", "line2": "2 67140  51.8680  65.2341 0007636 128.8466  20.4323 15.34956009  1306"}}, "geometry": {"type": "Point", "coordinates": [99.03178437455672, 36.11156337482849]}}]}